0 CZ-3C DEB
1 39340U 10057E   13294.03055130 -.00000007  00000-0  10409-2 0    38
2 39340 019.5700 250.1351 7199780 178.1524 187.8496 02.25034593 17283
